{"version": 0.6, "generator": "Overpass API 0.7.62.5 1bd436f1", "osm3s": {"timestamp_osm_base": "2025-03-11T11:43:07Z", "copyright": "The data included in this document is from www.openstreetmap.org. The data is made available under ODbL."}, "elements": [{"type": "node", "id": 54155648, "lat": 48.3657034, "lon": 14.5204834}, {"type": "node", "id": 54156115, "lat": 48.3658569, "lon": 14.520289}, {"type": "node", "id": 54156150, "lat": 48.3662193, "lon": 14.5197921}, {"type": "node", "id": 54157374, "lat": 48.3662377, "lon": 14.5199255}, {"type": "node", "id": 54157473, "lat": 48.3658959, "lon": 14.5203539}, {"type": "node", "id": 54158370, "lat": 48.3659793, "lon": 14.5202374}, {"type": "node", "id": 54158523, "lat": 48.3657718, "lon": 14.5206083}, {"type": "node", "id": 54158937, "lat": 48.3659399, "lon": 14.5201692}, {"type": "node", "id": 59931690, "lat": 48.3683888, "lon": 14.5139517}, {"type": "node", "id": 59931691, "lat": 48.3682573, "lon": 14.513964}, {"type": "node", "id": 59931692, "lat": 48.368301, "lon": 14.515024}, {"type": "node", "id": 59931693, "lat": 48.3684325, "lon": 14.5150117}, {"type": "node", "id": 59931694, "lat": 48.3683295, "lon": 14.5126826}, {"type": "node", "id": 59931697, "lat": 48.3681231, "lon": 14.5127209}, {"type": "node", "id": 59931707, "lat": 48.3691712, "lon": 14.5136852}, {"type": "node", "id": 59931708, "lat": 48.3691037, "lon": 14.5140571}, {"type": "node", "id": 59931709, "lat": 48.3689961, "lon": 14.5140208}, {"type": "node", "id": 59931711, "lat": 48.3691381, "lon": 14.5141304}, {"type": "node", "id": 59931712, "lat": 48.3691161, "lon": 14.5150626}, {"type": "node", "id": 59931713, "lat": 48.3689679, "lon": 14.5150592}, {"type": "node", "id": 59931714, "lat": 48.3689857, "lon": 14.51417}, {"type": "node", "id": 59931716, "lat": 48.3687299, "lon": 14.5151523}, {"type": "node", "id": 59931717, "lat": 48.3687316, "lon": 14.5153749}, {"type": "node", "id": 59931718, "lat": 48.3685047, "lon": 14.5154058}, {"type": "node", "id": 59931719, "lat": 48.3685106, "lon": 14.515226}, {"type": "node", "id": 59931725, "lat": 48.3677975, "lon": 14.5155973}, {"type": "node", "id": 59931726, "lat": 48.3678127, "lon": 14.5157312}, {"type": "node", "id": 59931727, "lat": 48.367425, "lon": 14.5159246}, {"type": "node", "id": 59931728, "lat": 48.3670633, "lon": 14.5159965}, {"type": "node", "id": 59931729, "lat": 48.3670553, "lon": 14.5159062}, {"type": "node", "id": 59931730, "lat": 48.3673432, "lon": 14.5158224}, {"type": "node", "id": 59937239, "lat": 48.3668265, "lon": 14.5145328}, {"type": "node", "id": 59937240, "lat": 48.3664847, "lon": 14.5144888}, {"type": "node", "id": 59937241, "lat": 48.3668273, "lon": 14.514463}, {"type": "node", "id": 60116284, "lat": 48.3673578, "lon": 14.5164555, "tags": {"amenity": "bank", "atm": "yes", "contact:fax": "+43 7236 2315-99", "contact:phone": "+43 7236 2315", "name": "Raiffeisenbank", "operator": "Raiffeisen", "wheelchair": "yes"}}, {"type": "node", "id": 60116285, "lat": 48.3672097, "lon": 14.5167252, "tags": {"amenity": "pharmacy", "check_date:opening_hours": "2021-06-13", "contact:email": "office@apothekehagenberg.at", "contact:fax": "+43 7236 20683-15", "contact:phone": "+43 7236 20683", "contact:website": "http://www.apothekehagenberg.at/", "dispensing": "yes", "level": "0", "name": "Apotheke Hagenberg", "opening_hours": "Mo-Fr 08:00-12:30,14:00-18:00; Sa 08:00-12:00", "wheelchair": "yes"}}, {"type": "node", "id": 60116290, "lat": 48.3669065, "lon": 14.5174094, "tags": {"addr:city": "Hagenberg", "addr:housenumber": "89", "addr:postcode": "4232", "addr:street": "Hauptstra\u00dfe", "amenity": "restaurant", "created_by": "JOSM", "name": "Hametner", "wheelchair": "yes"}}, {"type": "node", "id": 60116294, "lat": 48.3661906, "lon": 14.5143567, "tags": {"addr:city": "Hagenberg im M\u00fchlkreis", "addr:country": "AT", "addr:housenumber": "5", "addr:postcode": "4232", "addr:street": "Kirchenplatz", "amenity": "restaurant", "cuisine": "regional", "name": "Schlossrestaurant", "toilets:wheelchair": "yes", "wheelchair": "no"}}, {"type": "node", "id": 60116296, "lat": 48.370387, "lon": 14.5146428, "tags": {"amenity": "restaurant", "contact:email": "office@burgerei.at", "contact:phone": "+43 7236 31551", "contact:website": "http://www.burgerei.at/", "cuisine": "burger", "name": "Burgerei", "opening_hours": "Mo-Sa 11:00-22:00; Su off; PH off", "opening_hours:kitchen": "Mo-Sa 11:00-21:30; Su off; PH off", "operator": "KSP Gastro GmbH", "toilets:wheelchair": "yes", "wheelchair": "limited"}}, {"type": "node", "id": 245049199, "lat": 48.3682299, "lon": 14.5150166}, {"type": "node", "id": 258099869, "lat": 48.367207, "lon": 14.5170097, "tags": {"amenity": "post_office", "check_date:opening_hours": "2021-06-13", "contact:phone": "+43 7236 20806", "level": "0", "name": "Postpartner, Diakoniewerk", "opening_hours": "Mo-Fr 08:00-12:00,14:00-17:00", "postal_code": "4232", "ref": "4232", "type": "Post.Partner", "wheelchair": "limited"}}, {"type": "node", "id": 267076197, "lat": 48.368177, "lon": 14.515811, "tags": {"addr:postcode": "4232", "amenity": "cafe", "name": "Honeder Naturbackstube", "opening_hours": "Mo-Fr 06:00-18:00; Sa-Su 06:30-12:00; PH off", "operator": "Ingrid P\u00fchringer", "phone": "+43 7236 26003", "shop": "bakery", "website": "https://www.naturbackstube.at/", "wheelchair": "limited"}}, {"type": "node", "id": 267076781, "lat": 48.3682734, "lon": 14.5133372, "tags": {"addr:city": "Hagenberg im M\u00fchlkreis", "addr:housenumber": "12", "addr:postcode": "4232", "addr:street": "Softwarepark", "amenity": "restaurant", "cuisine": "regional", "diet:vegan": "no", "diet:vegetarian": "yes", "email": "viktoria@loungerie.at", "name": "Campina", "opening_hours": "Mo-Fr 08:00-18:00, Tu 18:00+ \"Spaghetti-Night\"; PH off", "outdoor_seating": "yes", "payment:cash": "yes", "payment:coins": "yes", "phone": "+43 664 99832017", "smoking": "outside", "toilets:wheelchair": "yes", "website": "https://www.loungerie.at/campina/", "wheelchair": "yes"}}, {"type": "node", "id": 267076782, "lat": 48.3680673, "lon": 14.5127585, "tags": {"addr:city": "Hagenberg im M\u00fchlkreis", "addr:country": "AT", "addr:housenumber": "12", "addr:postcode": "4232", "addr:street": "Softwarepark", "air_conditioning": "yes", "amenity": "pub", "brewery": "Zipfer;linzer;freist\u00e4dter", "email": "viktoria@loungerie.at", "name": "Pub Loungerie", "opening_hours": "Mo,We,Th 18:00-02:00, Fr 18:00-00:00; PH off", "outdoor_seating": "yes", "smoking": "outside", "toilets:wheelchair": "no", "website": "https://www.loungerie.at/loungerie", "wheelchair": "yes", "wheelchair:description": "Der Eingang vorne ist nur durch eine Stiege m\u00f6glich.Nur wenn das FH Geb\u00e4ude offen hat ist es ohne zus\u00e4tzliche Hilfe m\u00f6glich, zur Bar zu kommen. Man benutzt entweder das FH2 oder FH3 Geb\u00e4ude mit dem Lift."}}, {"type": "node", "id": 292979669, "lat": 48.3698883, "lon": 14.512622}, {"type": "node", "id": 292979671, "lat": 48.3697298, "lon": 14.512608}, {"type": "node", "id": 292979673, "lat": 48.3695853, "lon": 14.5125953}, {"type": "node", "id": 292979681, "lat": 48.3694248, "lon": 14.5125811}, {"type": "node", "id": 292979683, "lat": 48.3697138, "lon": 14.513021}, {"type": "node", "id": 292979684, "lat": 48.3695692, "lon": 14.5130082}, {"type": "node", "id": 302681286, "lat": 48.3685788, "lon": 14.5125984}, {"type": "node", "id": 302681346, "lat": 48.3685516, "lon": 14.5119676}, {"type": "node", "id": 302681501, "lat": 48.3692279, "lon": 14.511266}, {"type": "node", "id": 302684187, "lat": 48.3682447, "lon": 14.5152584}, {"type": "node", "id": 304193551, "lat": 48.3687585, "lon": 14.5119425}, {"type": "node", "id": 304193555, "lat": 48.3687862, "lon": 14.512579}, {"type": "node", "id": 304523856, "lat": 48.3678142, "lon": 14.5149056}, {"type": "node", "id": 309287144, "lat": 48.3681505, "lon": 14.515459}, {"type": "node", "id": 309287147, "lat": 48.3679, "lon": 14.5157078}, {"type": "node", "id": 309287149, "lat": 48.3678854, "lon": 14.5155569}, {"type": "node", "id": 309287151, "lat": 48.3681531, "lon": 14.5155781}, {"type": "node", "id": 315112872, "lat": 48.3671724, "lon": 14.5181373, "tags": {"addr:city": "Hagenberg", "addr:housenumber": "85", "addr:postcode": "4232", "addr:street": "Hauptstra\u00dfe", "amenity": "cafe", "name": "Caf\u00e9 Monika", "opening_hours": "Tu-Su 08:00-04:00", "outdoor_seating": "yes", "phone": "+43 7236 23200", "wheelchair": "no"}}, {"type": "node", "id": 343318766, "lat": 48.3665326, "lon": 14.5159315, "tags": {"addr:city": "Hagenberg im M\u00fchlkreis", "addr:housenumber": "5", "addr:postcode": "4232", "addr:street": "Weingarten", "amenity": "bank", "atm": "yes", "name": "Sparkasse", "opening_hours": "Mo-Fr 08:00-12:00", "operator": "Sparkasse Pregarten-Unterwei\u00dfenbach AG", "phone": "+43 5 0100 - 42703", "website": "https://www.sparkasse.at/pregarten/filialen-oeffungszeiten/filialsuche/filiale/4232-hagenberg-im-muhlkreis/weingarten-5/AT02220003", "wheelchair": "yes"}}, {"type": "node", "id": 384740468, "lat": 48.3648674, "lon": 14.5232605, "tags": {"amenity": "bench", "backrest": "no", "check_date": "2021-06-13"}}, {"type": "node", "id": 384740655, "lat": 48.3664793, "lon": 14.5199836}, {"type": "node", "id": 384740656, "lat": 48.3661564, "lon": 14.5202946}, {"type": "node", "id": 384740657, "lat": 48.366268, "lon": 14.5208888}, {"type": "node", "id": 384740658, "lat": 48.3663376, "lon": 14.5208638}, {"type": "node", "id": 384740659, "lat": 48.3663012, "lon": 14.5204459}, {"type": "node", "id": 384740660, "lat": 48.3666029, "lon": 14.5202514}, {"type": "node", "id": 384741764, "lat": 48.3669464, "lon": 14.5185681}, {"type": "node", "id": 384741765, "lat": 48.3663854, "lon": 14.5184482}, {"type": "node", "id": 384741766, "lat": 48.3663775, "lon": 14.5179397}, {"type": "node", "id": 384741767, "lat": 48.3669693, "lon": 14.517933}, {"type": "node", "id": 385954620, "lat": 48.3671696, "lon": 14.5175948, "tags": {"addr:city": "Hagenberg", "addr:housenumber": "88", "addr:postcode": "4232", "addr:street": "Hauptstra\u00dfe", "amenity": "school", "name": "Volksschule", "wheelchair": "yes"}}, {"type": "node", "id": 388036061, "lat": 48.3683847, "lon": 14.5138363}, {"type": "node", "id": 405132124, "lat": 48.3678588, "lon": 14.5142337}, {"type": "node", "id": 405132136, "lat": 48.3664861, "lon": 14.514425}, {"type": "node", "id": 413418354, "lat": 48.367836, "lon": 14.5143281, "tags": {"amenity": "bench", "backrest": "yes", "check_date": "2021-06-13", "source": "survey"}}, {"type": "node", "id": 413418384, "lat": 48.3676421, "lon": 14.5141049, "tags": {"amenity": "bench", "backrest": "yes", "check_date": "2021-06-13"}}, {"type": "node", "id": 413418527, "lat": 48.3672658, "lon": 14.5131179, "tags": {"amenity": "bench"}}, {"type": "node", "id": 413418699, "lat": 48.367893, "lon": 14.5144912}, {"type": "node", "id": 413418729, "lat": 48.3669179, "lon": 14.5146113, "tags": {"amenity": "bench", "check_date": "2021-06-13"}}, {"type": "node", "id": 413422140, "lat": 48.3659261, "lon": 14.5148326, "tags": {"amenity": "fountain"}}, {"type": "node", "id": 413426729, "lat": 48.3661611, "lon": 14.5148076}, {"type": "node", "id": 413426730, "lat": 48.3661782, "lon": 14.5149353}, {"type": "node", "id": 413426731, "lat": 48.3661959, "lon": 14.5149752}, {"type": "node", "id": 413426732, "lat": 48.3662033, "lon": 14.5150095}, {"type": "node", "id": 413426733, "lat": 48.3661978, "lon": 14.5150442}, {"type": "node", "id": 413426734, "lat": 48.3661816, "lon": 14.5150673}, {"type": "node", "id": 413426735, "lat": 48.3660772, "lon": 14.5150637}, {"type": "node", "id": 413426736, "lat": 48.3660242, "lon": 14.5150282}, {"type": "node", "id": 413426738, "lat": 48.3660444, "lon": 14.5149381}, {"type": "node", "id": 413429516, "lat": 48.3669866, "lon": 14.5181514, "tags": {"barrier": "gate"}}, {"type": "node", "id": 413436158, "lat": 48.3677584, "lon": 14.5167851}, {"type": "node", "id": 413436159, "lat": 48.3675846, "lon": 14.5170729}, {"type": "node", "id": 413436161, "lat": 48.3676102, "lon": 14.5164462}, {"type": "node", "id": 413436162, "lat": 48.3677122, "lon": 14.5166518}, {"type": "node", "id": 413442821, "lat": 48.3664503, "lon": 14.5178214, "tags": {"amenity": "parking", "wheelchair": "yes"}}, {"type": "node", "id": 413448966, "lat": 48.3661937, "lon": 14.5166455, "tags": {"amenity": "recycling"}}, {"type": "node", "id": 413449579, "lat": 48.3671615, "lon": 14.5163961}, {"type": "node", "id": 413449796, "lat": 48.3671747, "lon": 14.5164081}, {"type": "node", "id": 413449801, "lat": 48.3671526, "lon": 14.5166656}, {"type": "node", "id": 413450543, "lat": 48.3669236, "lon": 14.5184995, "tags": {"amenity": "bench"}}, {"type": "node", "id": 413450555, "lat": 48.3666442, "lon": 14.518036, "tags": {"amenity": "place_of_worship", "denomination": "catholic", "name": "Friedhof", "religion": "christian", "wheelchair": "limited"}}, {"type": "node", "id": 413478068, "lat": 48.3661462, "lon": 14.5147076}, {"type": "node", "id": 413481444, "lat": 48.3662505, "lon": 14.5150688, "tags": {"amenity": "fountain"}}, {"type": "node", "id": 413481562, "lat": 48.3689681, "lon": 14.5124078, "tags": {"amenity": "fountain"}}, {"type": "node", "id": 413487737, "lat": 48.3660993, "lon": 14.5145216, "tags": {"addr:city": "Hagenberg im M\u00fchlkreis", "addr:country": "AT", "addr:housenumber": "5", "addr:postcode": "4232", "addr:street": "Kirchengasse", "amenity": "townhall", "contact:email": "gemeinde@hagenberg.ooe.gv.at", "contact:fax": "+43 7236 2318-3", "contact:phone": "+43 7236 2318-0", "contact:website": "http://www.hagenberg.ooe.gv.at", "name": "Hagenberg im M\u00fchlkreis", "name:prefix:at": "Gemeindeamt", "opening_hours": "Mo,Tu,Th 07:00-12:00,13:00-18:00; We,Fr 07:00-12:00", "townhall:type": "village", "wheelchair": "limited"}}, {"type": "node", "id": 413487770, "lat": 48.3673603, "lon": 14.5165845, "tags": {"amenity": "toilets", "toilets:wheelchair": "yes", "wheelchair": "yes"}}, {"type": "node", "id": 413491427, "lat": 48.3673669, "lon": 14.5169491, "tags": {"addr:city": "Hagenberg im M\u00fchlkreis", "addr:housenumber": "90", "addr:postcode": "4232", "addr:street": "Hauptstra\u00dfe", "amenity": "doctors", "healthcare": "doctor", "healthcare:speciality": "general", "name": "Dr. Reichel & Dr. Ritter", "opening_hours": "Mo 08:00-13:00; Tu 08:00-12:00,16:00-20:00; We 17:00-20:00; Th 08:00-13:00; Fr 08:00-12:00", "operator": "Dr. Reichel & Dr. Ritter OG", "phone": "+43 7236 6098", "website": "http://www.drreichel.at/", "wheelchair": "yes"}}, {"type": "node", "id": 413496686, "lat": 48.3671895, "lon": 14.5172796, "tags": {"amenity": "bench"}}, {"type": "node", "id": 413516177, "lat": 48.3693024, "lon": 14.5126084}, {"type": "node", "id": 413519092, "lat": 48.3693812, "lon": 14.5127145, "tags": {"amenity": "fountain"}}, {"type": "node", "id": 415582463, "lat": 48.3685807, "lon": 14.5153959, "tags": {"barrier": "gate"}}, {"type": "node", "id": 417183005, "lat": 48.3664555, "lon": 14.51415, "tags": {"amenity": "events_venue", "name": "Eiskeller", "note": "only used from time to time", "website": "http://reservierung.hagenberg.at/Reservation.aspx?RoomID=8&CategoryID=1", "wheelchair": "no"}}, {"type": "node", "id": 485544738, "lat": 48.3668017, "lon": 14.5007958, "tags": {"amenity": "hunting_stand"}}, {"type": "node", "id": 509941622, "lat": 48.3713676, "lon": 14.5157229}, {"type": "node", "id": 509941629, "lat": 48.371155, "lon": 14.5156634}, {"type": "node", "id": 509941647, "lat": 48.3711964, "lon": 14.5154217}, {"type": "node", "id": 509941649, "lat": 48.371429, "lon": 14.5154837}, {"type": "node", "id": 509941740, "lat": 48.3705053, "lon": 14.5116756}, {"type": "node", "id": 509941756, "lat": 48.3705909, "lon": 14.5126978}, {"type": "node", "id": 518767085, "lat": 48.3693595, "lon": 14.513339, "tags": {"amenity": "fountain"}}, {"type": "node", "id": 519053788, "lat": 48.3749729, "lon": 14.513087}, {"type": "node", "id": 519053797, "lat": 48.3747658, "lon": 14.5129374}, {"type": "node", "id": 519053807, "lat": 48.374707, "lon": 14.5129589}, {"type": "node", "id": 519053815, "lat": 48.3740003, "lon": 14.5148431}, {"type": "node", "id": 519053827, "lat": 48.3727351, "lon": 14.5160803}, {"type": "node", "id": 519053885, "lat": 48.3747478, "lon": 14.5169424}, {"type": "node", "id": 519053889, "lat": 48.3748579, "lon": 14.5158277}, {"type": "node", "id": 519053891, "lat": 48.3750888, "lon": 14.5142612}, {"type": "node", "id": 652408889, "lat": 48.3671461, "lon": 14.517251}, {"type": "node", "id": 789803722, "lat": 48.3785022, "lon": 14.5250433, "tags": {"amenity": "hunting_stand"}}, {"type": "node", "id": 940215054, "lat": 48.3678617, "lon": 14.5141996}, {"type": "node", "id": 940215072, "lat": 48.3679168, "lon": 14.5140209}, {"type": "node", "id": 940215074, "lat": 48.3678799, "lon": 14.5137202}, {"type": "node", "id": 940215078, "lat": 48.3677651, "lon": 14.512456}, {"type": "node", "id": 941268678, "lat": 48.3711714, "lon": 14.5241058}, {"type": "node", "id": 941268681, "lat": 48.3710805, "lon": 14.5240647}, {"type": "node", "id": 941268682, "lat": 48.3711444, "lon": 14.5237443}, {"type": "node", "id": 941268685, "lat": 48.3712353, "lon": 14.5237853}, {"type": "node", "id": 941467525, "lat": 48.374679, "lon": 14.5129432}, {"type": "node", "id": 941467526, "lat": 48.374623, "lon": 14.513}, {"type": "node", "id": 941467527, "lat": 48.3746127, "lon": 14.512977}, {"type": "node", "id": 941467528, "lat": 48.3746686, "lon": 14.5129201}, {"type": "node", "id": 941467529, "lat": 48.374604, "lon": 14.5127761}, {"type": "node", "id": 941467530, "lat": 48.3745954, "lon": 14.5127506}, {"type": "node", "id": 941467531, "lat": 48.3745331, "lon": 14.512798}, {"type": "node", "id": 941467532, "lat": 48.3745417, "lon": 14.5128236}, {"type": "node", "id": 942837797, "lat": 48.3678888, "lon": 14.51595}, {"type": "node", "id": 942837989, "lat": 48.3664027, "lon": 14.5199454}, {"type": "node", "id": 1300226045, "lat": 48.3660152, "lon": 14.5147444}, {"type": "node", "id": 1300226057, "lat": 48.3661385, "lon": 14.5147076}, {"type": "node", "id": 1300226090, "lat": 48.3661505, "lon": 14.515065}, {"type": "node", "id": 1300226092, "lat": 48.3661702, "lon": 14.5148756}, {"type": "node", "id": 1300260825, "lat": 48.3678132, "lon": 14.5154306}, {"type": "node", "id": 1300260834, "lat": 48.3693383, "lon": 14.5125846}, {"type": "node", "id": 1300260854, "lat": 48.3690358, "lon": 14.51402}, {"type": "node", "id": 1300260872, "lat": 48.369117, "lon": 14.5136068}, {"type": "node", "id": 1300260877, "lat": 48.3685721, "lon": 14.5151573}, {"type": "node", "id": 1300260878, "lat": 48.3691535, "lon": 14.5136823}, {"type": "node", "id": 1300260886, "lat": 48.3690059, "lon": 14.5134202}, {"type": "node", "id": 1300260892, "lat": 48.3690031, "lon": 14.5133016}, {"type": "node", "id": 1300260898, "lat": 48.3691206, "lon": 14.5138409}, {"type": "node", "id": 1300260909, "lat": 48.3691164, "lon": 14.513085}, {"type": "node", "id": 1300260910, "lat": 48.3690645, "lon": 14.5141296}, {"type": "node", "id": 1300260941, "lat": 48.3689921, "lon": 14.5138367}, {"type": "node", "id": 1300260952, "lat": 48.3690135, "lon": 14.5136159}, {"type": "node", "id": 1300260971, "lat": 48.3691094, "lon": 14.5134111}, {"type": "node", "id": 1300260973, "lat": 48.3685732, "lon": 14.5152232}, {"type": "node", "id": 1300260983, "lat": 48.3690386, "lon": 14.5140611}, {"type": "node", "id": 1300260985, "lat": 48.3691218, "lon": 14.5132947}, {"type": "node", "id": 1300261010, "lat": 48.3689977, "lon": 14.5130919}, {"type": "node", "id": 1300261022, "lat": 48.3690634, "lon": 14.5141757}, {"type": "node", "id": 1330634112, "lat": 48.3725948, "lon": 14.5159918}, {"type": "node", "id": 1330634117, "lat": 48.3721815, "lon": 14.5174972}, {"type": "node", "id": 1330637147, "lat": 48.3708776, "lon": 14.5138074}, {"type": "node", "id": 1330637153, "lat": 48.3708556, "lon": 14.5143312}, {"type": "node", "id": 1330637154, "lat": 48.3707582, "lon": 14.5143234}, {"type": "node", "id": 1330637156, "lat": 48.3708444, "lon": 14.5146474}, {"type": "node", "id": 1330637157, "lat": 48.3707706, "lon": 14.5141209}, {"type": "node", "id": 1330637158, "lat": 48.3708687, "lon": 14.5141271}, {"type": "node", "id": 1366808869, "lat": 48.3674789, "lon": 14.5163182}, {"type": "node", "id": 1366808870, "lat": 48.367524, "lon": 14.5162449}, {"type": "node", "id": 1366808872, "lat": 48.3675799, "lon": 14.5164631}, {"type": "node", "id": 1366808873, "lat": 48.3676025, "lon": 14.5164183}, {"type": "node", "id": 1366808875, "lat": 48.3678622, "lon": 14.5154459}, {"type": "node", "id": 1366808876, "lat": 48.3678696, "lon": 14.5155605}, {"type": "node", "id": 1366808877, "lat": 48.3679453, "lon": 14.5130303}, {"type": "node", "id": 1366808878, "lat": 48.3679839, "lon": 14.5133915}, {"type": "node", "id": 1366808879, "lat": 48.3681397, "lon": 14.5130097}, {"type": "node", "id": 1366808882, "lat": 48.3681855, "lon": 14.515333}, {"type": "node", "id": 1366808883, "lat": 48.3681952, "lon": 14.5154437}, {"type": "node", "id": 1366808884, "lat": 48.3682077, "lon": 14.5153473}, {"type": "node", "id": 1366808887, "lat": 48.3682134, "lon": 14.5154371}, {"type": "node", "id": 1366808888, "lat": 48.3682296, "lon": 14.5155455}, {"type": "node", "id": 1366808890, "lat": 48.3682482, "lon": 14.5153332}, {"type": "node", "id": 1366808891, "lat": 48.3682509, "lon": 14.5133581}, {"type": "node", "id": 1366808892, "lat": 48.3682577, "lon": 14.515086}, {"type": "node", "id": 1366808893, "lat": 48.3682598, "lon": 14.5152323}, {"type": "node", "id": 1366808894, "lat": 48.3682669, "lon": 14.5153266}, {"type": "node", "id": 1366808895, "lat": 48.3682701, "lon": 14.5155318}, {"type": "node", "id": 1366808896, "lat": 48.3683063, "lon": 14.5152276}, {"type": "node", "id": 1366808897, "lat": 48.3683084, "lon": 14.5150828}, {"type": "node", "id": 1366808898, "lat": 48.368326, "lon": 14.5114145}, {"type": "node", "id": 1366808899, "lat": 48.3683587, "lon": 14.5122579}, {"type": "node", "id": 1366808900, "lat": 48.3683639, "lon": 14.5114078}, {"type": "node", "id": 1366808902, "lat": 48.3684008, "lon": 14.5131059}, {"type": "node", "id": 1366808903, "lat": 48.3684051, "lon": 14.5122539}, {"type": "node", "id": 1366808904, "lat": 48.3684284, "lon": 14.5136798}, {"type": "node", "id": 1366808906, "lat": 48.3684676, "lon": 14.5136755}, {"type": "node", "id": 1366808911, "lat": 48.3692711, "lon": 14.5138106}, {"type": "node", "id": 1366808913, "lat": 48.3692724, "lon": 14.5150895}, {"type": "node", "id": 1366808914, "lat": 48.3692756, "lon": 14.5152529}, {"type": "node", "id": 1366808915, "lat": 48.3692586, "lon": 14.5135354, "tags": {"access": "private", "amenity": "parking_entrance"}}, {"type": "node", "id": 1366808916, "lat": 48.3692786, "lon": 14.513299}, {"type": "node", "id": 1366808917, "lat": 48.3692768, "lon": 14.5133582, "tags": {"access": "private", "amenity": "parking_entrance"}}, {"type": "node", "id": 1366808921, "lat": 48.3693644, "lon": 14.5135492}, {"type": "node", "id": 1366808922, "lat": 48.3693677, "lon": 14.5134593}, {"type": "node", "id": 1366808924, "lat": 48.3693941, "lon": 14.5150255}, {"type": "node", "id": 1366808925, "lat": 48.3693951, "lon": 14.5150966}, {"type": "node", "id": 1366808926, "lat": 48.3694002, "lon": 14.513213}, {"type": "node", "id": 1366808929, "lat": 48.3695885, "lon": 14.5152275}, {"type": "node", "id": 1366808930, "lat": 48.3695138, "lon": 14.5152322}, {"type": "node", "id": 1366808931, "lat": 48.3695608, "lon": 14.5132249}, {"type": "node", "id": 1366808935, "lat": 48.3696777, "lon": 14.5151471}, {"type": "node", "id": 1366808936, "lat": 48.3695952, "lon": 14.5150082}, {"type": "node", "id": 1366808939, "lat": 48.3697279, "lon": 14.5135795}, {"type": "node", "id": 1366808940, "lat": 48.3697312, "lon": 14.5134895}, {"type": "node", "id": 1366808941, "lat": 48.3697098, "lon": 14.5141808}, {"type": "node", "id": 1366808942, "lat": 48.3697349, "lon": 14.513497}, {"type": "node", "id": 1366808944, "lat": 48.3697881, "lon": 14.5149197}, {"type": "node", "id": 1366808945, "lat": 48.369796, "lon": 14.514464}, {"type": "node", "id": 1366808946, "lat": 48.3698405, "lon": 14.5149218}, {"type": "node", "id": 1366808947, "lat": 48.3698484, "lon": 14.5144661}, {"type": "node", "id": 1366808948, "lat": 48.3698599, "lon": 14.5141933}, {"type": "node", "id": 1366808949, "lat": 48.3698722, "lon": 14.5130358}, {"type": "node", "id": 1366808950, "lat": 48.369885, "lon": 14.5135095}, {"type": "node", "id": 1366808953, "lat": 48.3702107, "lon": 14.5148717}, {"type": "node", "id": 1366808954, "lat": 48.3702098, "lon": 14.5150122}, {"type": "node", "id": 1366808956, "lat": 48.3702562, "lon": 14.5148738}, {"type": "node", "id": 1366808963, "lat": 48.3702543, "lon": 14.514956}, {"type": "node", "id": 1366808968, "lat": 48.370535, "lon": 14.5150155}, {"type": "node", "id": 1366808970, "lat": 48.3705468, "lon": 14.5144717}, {"type": "node", "id": 1367722609, "lat": 48.3685422, "lon": 14.5116982}, {"type": "node", "id": 1367722613, "lat": 48.3687769, "lon": 14.5123139}, {"type": "node", "id": 1367722614, "lat": 48.3685694, "lon": 14.51233}, {"type": "node", "id": 1367722617, "lat": 48.3687493, "lon": 14.5116807}, {"type": "node", "id": 1373799834, "lat": 48.3673582, "lon": 14.5176537, "tags": {"addr:city": "Hagenberg im M\u00fchlkreis", "addr:housenumber": "88", "addr:postcode": "4232", "addr:street": "Hauptstra\u00dfe", "amenity": "library", "name": "\u00d6ffentliche Bibliothek der Pfarre und Gemeinde Hagenberg", "phone": "+43 681 20429678", "website": "https://www.hagenberg.bvoe.at/", "wheelchair": "yes", "wikidata": "Q56238149"}}, {"type": "node", "id": 1383020849, "lat": 48.3679366, "lon": 14.5117291}, {"type": "node", "id": 1383020853, "lat": 48.3682998, "lon": 14.5112093}, {"type": "node", "id": 1383020855, "lat": 48.3683411, "lon": 14.5119082}, {"type": "node", "id": 1383020857, "lat": 48.3684331, "lon": 14.5138278}, {"type": "node", "id": 1383020858, "lat": 48.368495, "lon": 14.5138748}, {"type": "node", "id": 1383020860, "lat": 48.3685236, "lon": 14.5151155}, {"type": "node", "id": 1383628459, "lat": 48.3671462, "lon": 14.5171695}, {"type": "node", "id": 1383628466, "lat": 48.3673807, "lon": 14.5167972}, {"type": "node", "id": 1448814969, "lat": 48.3659129, "lon": 14.5201085}, {"type": "node", "id": 1448814976, "lat": 48.3661809, "lon": 14.5203397}, {"type": "node", "id": 1448814977, "lat": 48.3662061, "lon": 14.520559}, {"type": "node", "id": 1448814979, "lat": 48.3662475, "lon": 14.5205412}, {"type": "node", "id": 1448814981, "lat": 48.3662853, "lon": 14.5205056}, {"type": "node", "id": 1448814991, "lat": 48.3664475, "lon": 14.5200245}, {"type": "node", "id": 1448814992, "lat": 48.3665061, "lon": 14.520428}, {"type": "node", "id": 1448814993, "lat": 48.3665561, "lon": 14.5203302}, {"type": "node", "id": 1448814995, "lat": 48.3665628, "lon": 14.5202923}, {"type": "node", "id": 1448814996, "lat": 48.3665758, "lon": 14.520367}, {"type": "node", "id": 1519548434, "lat": 48.3685524, "lon": 14.5129764}, {"type": "node", "id": 1519548436, "lat": 48.3685556, "lon": 14.5130481}, {"type": "node", "id": 1519548439, "lat": 48.3689084, "lon": 14.5129395}, {"type": "node", "id": 1519548443, "lat": 48.3689117, "lon": 14.5130113}, {"type": "node", "id": 1519548459, "lat": 48.3689644, "lon": 14.5129343}, {"type": "node", "id": 1519548461, "lat": 48.3689663, "lon": 14.5130018}, {"type": "node", "id": 1519548464, "lat": 48.3690668, "lon": 14.5129277}, {"type": "node", "id": 1519548468, "lat": 48.3690687, "lon": 14.5129952}, {"type": "node", "id": 1519553520, "lat": 48.36844, "lon": 14.5131016}, {"type": "node", "id": 1519578592, "lat": 48.3695953, "lon": 14.5150806}, {"type": "node", "id": 1519578596, "lat": 48.36968, "lon": 14.5152082}, {"type": "node", "id": 1674411916, "lat": 48.3672065, "lon": 14.5171014, "tags": {"addr:city": "Hagenberg im M\u00fchlkreis", "addr:housenumber": "90", "addr:postcode": "4232", "addr:street": "Hauptstra\u00dfe", "amenity": "fast_food", "contact:facebook": "https://www.facebook.com/people/Lavinya-Pizzeria-Kebap/100057268277470/", "contact:phone": "+43 7236 26262", "cuisine": "kebab;pizza", "drive_through": "no", "level": "1", "name": "Lavinya", "opening_hours": "Mo-Fr 11:00-14:00,17:00-20:00; Su 11:00-15:00", "phone": "+43 7236 26262", "website": "https://lavinya.cielox.at/", "wheelchair": "limited"}}, {"type": "node", "id": 1802165877, "lat": 48.3685463, "lon": 14.5118176}, {"type": "node", "id": 1802165878, "lat": 48.3685735, "lon": 14.5124485}, {"type": "node", "id": 1802165879, "lat": 48.3687537, "lon": 14.5118035}, {"type": "node", "id": 1802165880, "lat": 48.3687809, "lon": 14.512428}, {"type": "node", "id": 2007989848, "lat": 48.3682986, "lon": 14.5111629}, {"type": "node", "id": 2007989853, "lat": 48.3683136, "lon": 14.5112301}, {"type": "node", "id": 2007989855, "lat": 48.3683177, "lon": 14.511303}, {"type": "node", "id": 2007989858, "lat": 48.3683702, "lon": 14.5110207}, {"type": "node", "id": 2007989863, "lat": 48.3684514, "lon": 14.5113239}, {"type": "node", "id": 2007989866, "lat": 48.3684555, "lon": 14.5113886}, {"type": "node", "id": 2007989868, "lat": 48.3684692, "lon": 14.5127172}, {"type": "node", "id": 2007989871, "lat": 48.3684747, "lon": 14.5129136}, {"type": "node", "id": 2007989873, "lat": 48.3684851, "lon": 14.5131898}, {"type": "node", "id": 2007989875, "lat": 48.3685027, "lon": 14.5131882}, {"type": "node", "id": 2007989877, "lat": 48.3685046, "lon": 14.5136726}, {"type": "node", "id": 2007989879, "lat": 48.3685119, "lon": 14.5127145}, {"type": "node", "id": 2007989881, "lat": 48.3685174, "lon": 14.5129109}, {"type": "node", "id": 2007989883, "lat": 48.3685222, "lon": 14.513671}, {"type": "node", "id": 2007989886, "lat": 48.3687365, "lon": 14.5111763}, {"type": "node", "id": 2007989889, "lat": 48.3687406, "lon": 14.5112492}, {"type": "node", "id": 2007989892, "lat": 48.3687428, "lon": 14.5112822}, {"type": "node", "id": 2007989898, "lat": 48.3687469, "lon": 14.5113469}, {"type": "node", "id": 2024619780, "lat": 48.3681656, "lon": 14.5114307}, {"type": "node", "id": 2024619781, "lat": 48.3681157, "lon": 14.5114528}, {"type": "node", "id": 2024619783, "lat": 48.3681914, "lon": 14.5113549}, {"type": "node", "id": 2024619784, "lat": 48.3681444, "lon": 14.5120535}, {"type": "node", "id": 2024619786, "lat": 48.3682051, "lon": 14.5112737}, {"type": "node", "id": 2024619787, "lat": 48.3681492, "lon": 14.5121489}, {"type": "node", "id": 2024619788, "lat": 48.3683151, "lon": 14.5114161}, {"type": "node", "id": 2024619789, "lat": 48.3683517, "lon": 14.5121206}, {"type": "node", "id": 2137749154, "lat": 48.3709096, "lon": 14.5164134}, {"type": "node", "id": 2137749157, "lat": 48.3709191, "lon": 14.5165954}, {"type": "node", "id": 2137749164, "lat": 48.3709458, "lon": 14.5168367}, {"type": "node", "id": 2137749167, "lat": 48.3709655, "lon": 14.5164065}, {"type": "node", "id": 2137749174, "lat": 48.3710889, "lon": 14.5168138}, {"type": "node", "id": 2137749180, "lat": 48.3712089, "lon": 14.5168156}, {"type": "node", "id": 2137749182, "lat": 48.3712109, "lon": 14.5164578}, {"type": "node", "id": 2137749184, "lat": 48.3712489, "lon": 14.5165206}, {"type": "node", "id": 2225364887, "lat": 48.369133, "lon": 14.5119215, "tags": {"access": "private", "amenity": "waste_disposal"}}, {"type": "node", "id": 2225364888, "lat": 48.3691398, "lon": 14.5119796, "tags": {"access": "private", "amenity": "waste_disposal"}}, {"type": "node", "id": 2225364889, "lat": 48.3691542, "lon": 14.5119187, "tags": {"access": "private", "amenity": "waste_disposal"}}, {"type": "node", "id": 2225364890, "lat": 48.3691579, "lon": 14.5119768, "tags": {"access": "private", "amenity": "waste_disposal"}}, {"type": "node", "id": 2225364891, "lat": 48.3691722, "lon": 14.5119215, "tags": {"access": "private", "amenity": "waste_disposal"}}, {"type": "node", "id": 2225364893, "lat": 48.3691734, "lon": 14.5119749, "tags": {"access": "private", "amenity": "waste_disposal"}}, {"type": "node", "id": 2225364894, "lat": 48.3691701, "lon": 14.5151064}, {"type": "node", "id": 2225364895, "lat": 48.36917, "lon": 14.5151946}, {"type": "node", "id": 2225364896, "lat": 48.3691871, "lon": 14.5151774, "tags": {"access": "private", "amenity": "waste_disposal"}}, {"type": "node", "id": 2225364898, "lat": 48.369202, "lon": 14.5151764, "tags": {"access": "private", "amenity": "waste_disposal"}}, {"type": "node", "id": 2225364899, "lat": 48.3692213, "lon": 14.5151065}, {"type": "node", "id": 2225364901, "lat": 48.3692212, "lon": 14.5151947}, {"type": "node", "id": 2225364926, "lat": 48.369625, "lon": 14.5151082}, {"type": "node", "id": 2225364927, "lat": 48.3696523, "lon": 14.5149635}, {"type": "node", "id": 2225364928, "lat": 48.3696528, "lon": 14.5150045}, {"type": "node", "id": 2225364930, "lat": 48.3696612, "lon": 14.5150405, "tags": {"access": "private", "amenity": "waste_disposal"}}, {"type": "node", "id": 2225364932, "lat": 48.3696736, "lon": 14.5150399, "tags": {"access": "private", "amenity": "waste_disposal"}}, {"type": "node", "id": 2225364934, "lat": 48.369712, "lon": 14.5149617}, {"type": "node", "id": 2225364936, "lat": 48.3697126, "lon": 14.5150026}, {"type": "node", "id": 2225751042, "lat": 48.3696825, "lon": 14.5150036}, {"type": "node", "id": 2260391892, "lat": 48.369268, "lon": 14.5116396}, {"type": "node", "id": 2260391893, "lat": 48.3692716, "lon": 14.5117102}, {"type": "node", "id": 2260391894, "lat": 48.3696803, "lon": 14.511592}, {"type": "node", "id": 2260391895, "lat": 48.3696839, "lon": 14.5116626}, {"type": "node", "id": 2280527835, "lat": 48.3703804, "lon": 14.5154976}, {"type": "node", "id": 2280527839, "lat": 48.3705977, "lon": 14.5169499}, {"type": "node", "id": 2280545962, "lat": 48.3724086, "lon": 14.5166145}, {"type": "node", "id": 2294707507, "lat": 48.3681061, "lon": 14.51425, "tags": {"amenity": "bench", "backrest": "yes", "source": "survey"}}, {"type": "node", "id": 2294707508, "lat": 48.3681073, "lon": 14.5142874, "tags": {"amenity": "bench", "backrest": "yes", "source": "survey"}}, {"type": "node", "id": 2294707509, "lat": 48.3681121, "lon": 14.5144362, "tags": {"amenity": "bench", "backrest": "yes", "source": "survey"}}, {"type": "node", "id": 2294707510, "lat": 48.3681133, "lon": 14.514472, "tags": {"amenity": "bench", "backrest": "yes", "source": "survey"}}, {"type": "node", "id": 2294707511, "lat": 48.3681832, "lon": 14.5148484, "tags": {"amenity": "bench", "backrest": "no", "colour": "grey", "material": "stone", "seats": "6", "source": "survey"}}, {"type": "node", "id": 2311172925, "lat": 48.3713885, "lon": 14.5190294}, {"type": "node", "id": 2311172926, "lat": 48.3713923, "lon": 14.5190674}, {"type": "node", "id": 2311172927, "lat": 48.3713973, "lon": 14.5191156}, {"type": "node", "id": 2311172928, "lat": 48.3714178, "lon": 14.5191398}, {"type": "node", "id": 2311172929, "lat": 48.3714325, "lon": 14.5189919}, {"type": "node", "id": 2311172930, "lat": 48.371493, "lon": 14.5186379}, {"type": "node", "id": 2311172932, "lat": 48.3715352, "lon": 14.5193585}, {"type": "node", "id": 2311172933, "lat": 48.3715792, "lon": 14.5190648}, {"type": "node", "id": 2311172934, "lat": 48.3716266, "lon": 14.5187451}, {"type": "node", "id": 2353387073, "lat": 48.372432, "lon": 14.5166327}, {"type": "node", "id": 2353387074, "lat": 48.3724522, "lon": 14.517411}, {"type": "node", "id": 2353387078, "lat": 48.3727484, "lon": 14.5163908}, {"type": "node", "id": 2624745265, "lat": 48.368277, "lon": 14.5138425}, {"type": "node", "id": 3590667678, "lat": 48.3739499, "lon": 14.5172315}, {"type": "node", "id": 3590667684, "lat": 48.3742974, "lon": 14.5133899}, {"type": "node", "id": 3590667686, "lat": 48.3746724, "lon": 14.5172413}, {"type": "node", "id": 3590667689, "lat": 48.3747917, "lon": 14.5167098}, {"type": "node", "id": 3590667692, "lat": 48.3748178, "lon": 14.5165128}, {"type": "node", "id": 3590667693, "lat": 48.3748315, "lon": 14.5163153}, {"type": "node", "id": 3590667694, "lat": 48.3748808, "lon": 14.5155834}, {"type": "node", "id": 3590667695, "lat": 48.3749165, "lon": 14.5153132}, {"type": "node", "id": 3590667697, "lat": 48.3748192, "lon": 14.5129388}, {"type": "node", "id": 3590667698, "lat": 48.3749288, "lon": 14.5129797}, {"type": "node", "id": 3590667699, "lat": 48.3749496, "lon": 14.5151051}, {"type": "node", "id": 3590667701, "lat": 48.3750032, "lon": 14.5132338}, {"type": "node", "id": 3590667702, "lat": 48.3750504, "lon": 14.5145981}, {"type": "node", "id": 3590667703, "lat": 48.3750615, "lon": 14.5136871}, {"type": "node", "id": 3590667704, "lat": 48.3750774, "lon": 14.5144135}, {"type": "node", "id": 3590667705, "lat": 48.3750811, "lon": 14.5139238}, {"type": "node", "id": 3590667706, "lat": 48.3750901, "lon": 14.5140832}, {"type": "node", "id": 3829773986, "lat": 48.3715211, "lon": 14.5185937}, {"type": "node", "id": 3829773987, "lat": 48.3716244, "lon": 14.518718}, {"type": "node", "id": 3954239068, "lat": 48.3704603, "lon": 14.5126846}, {"type": "node", "id": 3954239073, "lat": 48.3707309, "lon": 14.5126387}, {"type": "node", "id": 3954239077, "lat": 48.3709005, "lon": 14.5127217}, {"type": "node", "id": 3954239078, "lat": 48.3709015, "lon": 14.5126528}, {"type": "node", "id": 4433165432, "lat": 48.3702613, "lon": 14.5146346, "tags": {"addr:city": "Hagenberg im M\u00fchlkreis", "addr:housenumber": "30", "addr:postcode": "4232", "addr:street": "Softwarepark", "amenity": "restaurant", "contact:phone": "+43 7236 78313", "contact:website": "https://salzundpfeffer-hagenberg.at/", "cuisine": "turkish;pasta;pizza", "diet:vegetarian": "yes", "name": "Salz und Pfeffer", "opening_hours": "Mo-Su 10:00-21:00", "phone": "+43 7236 20861", "wheelchair": "limited"}}, {"type": "node", "id": 4688396912, "lat": 48.3663003, "lon": 14.5140499, "tags": {"addr:city": "Hagenberg", "addr:postcode": "4232", "addr:street": "Kirchenplatz", "amenity": "toilets", "name": "\u00d6ffentliche Toilette", "toilets:wheelchair": "yes", "wheelchair": "limited", "wheelchair:description": "Sehr kleines WC"}}, {"type": "node", "id": 4688435491, "lat": 48.3674558, "lon": 14.5165814, "tags": {"addr:city": "Hagenberg", "addr:housenumber": "1", "addr:postcode": "4232", "addr:street": "Raiffeisenstra\u00dfe", "amenity": "dentist", "healthcare": "dentist", "name": "Dr. Maria Prechtl", "toilets:wheelchair": "no", "wheelchair": "no"}}, {"type": "node", "id": 4756351505, "lat": 48.3665776, "lon": 14.5187314, "tags": {"amenity": "parking_entrance"}}, {"type": "node", "id": 4892000900, "lat": 48.3688164, "lon": 14.5148787, "tags": {"amenity": "college", "name": "Borg Hagenberg"}}, {"type": "node", "id": 4935464839, "lat": 48.3713941, "lon": 14.5156008}, {"type": "node", "id": 5105798362, "lat": 48.3724577, "lon": 14.5162973}, {"type": "node", "id": 5405603542, "lat": 48.3660492, "lon": 14.5199476}, {"type": "node", "id": 5405603543, "lat": 48.3658041, "lon": 14.5202711}, {"type": "node", "id": 5405603544, "lat": 48.3661121, "lon": 14.520056}, {"type": "node", "id": 5405603545, "lat": 48.3658267, "lon": 14.5204771}, {"type": "node", "id": 5405603609, "lat": 48.3660988, "lon": 14.51508}, {"type": "node", "id": 5550803126, "lat": 48.3745513, "lon": 14.5157896}, {"type": "node", "id": 5550803127, "lat": 48.3746355, "lon": 14.5157911}, {"type": "node", "id": 5550803128, "lat": 48.3744032, "lon": 14.5149001}, {"type": "node", "id": 5550803129, "lat": 48.3746549, "lon": 14.5147221}, {"type": "node", "id": 5550803130, "lat": 48.3744056, "lon": 14.515787}, {"type": "node", "id": 5550803131, "lat": 48.3743989, "lon": 14.5154304}, {"type": "node", "id": 5550803132, "lat": 48.3745487, "lon": 14.5161054}, {"type": "node", "id": 5550803133, "lat": 48.374403, "lon": 14.5161028}, {"type": "node", "id": 5550803134, "lat": 48.3742034, "lon": 14.5154269}, {"type": "node", "id": 5550803135, "lat": 48.3741954, "lon": 14.516437}, {"type": "node", "id": 5550803136, "lat": 48.3746303, "lon": 14.5164448}, {"type": "node", "id": 5550803137, "lat": 48.3745601, "lon": 14.514903}, {"type": "node", "id": 5550803138, "lat": 48.374634, "lon": 14.5155536}, {"type": "node", "id": 5550803139, "lat": 48.3745549, "lon": 14.5155522}, {"type": "node", "id": 5550803140, "lat": 48.3748048, "lon": 14.5157942}, {"type": "node", "id": 5550803141, "lat": 48.3748133, "lon": 14.5147249}, {"type": "node", "id": 5550803142, "lat": 48.3744935, "lon": 14.5143834}, {"type": "node", "id": 5550803143, "lat": 48.3743352, "lon": 14.5143805}, {"type": "node", "id": 5550803144, "lat": 48.374334, "lon": 14.5145357}, {"type": "node", "id": 5550803145, "lat": 48.3744923, "lon": 14.5145385}, {"type": "node", "id": 5550803146, "lat": 48.3742325, "lon": 14.5142199}, {"type": "node", "id": 5550803147, "lat": 48.3742271, "lon": 14.514897}, {"type": "node", "id": 5550803148, "lat": 48.3746392, "lon": 14.5149044}, {"type": "node", "id": 5550803149, "lat": 48.3746588, "lon": 14.5142276}, {"type": "node", "id": 5550803197, "lat": 48.3726105, "lon": 14.5157888}, {"type": "node", "id": 5550803198, "lat": 48.3724739, "lon": 14.5156957}, {"type": "node", "id": 5550803199, "lat": 48.372321, "lon": 14.5162042}, {"type": "node", "id": 5724043435, "lat": 48.3671334, "lon": 14.517285, "tags": {"amenity": "parking_entrance"}}, {"type": "node", "id": 5724043436, "lat": 48.3670746, "lon": 14.5166805}, {"type": "node", "id": 5724043437, "lat": 48.3670652, "lon": 14.5167703}, {"type": "node", "id": 5724043438, "lat": 48.3670898, "lon": 14.5165939}, {"type": "node", "id": 5724043439, "lat": 48.3671112, "lon": 14.5165233}, {"type": "node", "id": 5724043440, "lat": 48.3670624, "lon": 14.516871}, {"type": "node", "id": 5724043441, "lat": 48.3670679, "lon": 14.5172483}, {"type": "node", "id": 5744090038, "lat": 48.3692233, "lon": 14.5136293}, {"type": "node", "id": 5744090039, "lat": 48.3692175, "lon": 14.5138437}, {"type": "node", "id": 5744090040, "lat": 48.3692751, "lon": 14.5135968}, {"type": "node", "id": 5744090042, "lat": 48.3692599, "lon": 14.513437, "tags": {"access": "private", "amenity": "parking_entrance"}}, {"type": "node", "id": 5744090043, "lat": 48.3696002, "lon": 14.5135689}, {"type": "node", "id": 5744090044, "lat": 48.3696035, "lon": 14.5134789}, {"type": "node", "id": 5744090045, "lat": 48.3696408, "lon": 14.5135722}, {"type": "node", "id": 5744090046, "lat": 48.3696441, "lon": 14.5134823}, {"type": "node", "id": 5744285896, "lat": 48.3705096, "lon": 14.514469}, {"type": "node", "id": 5744285897, "lat": 48.370494, "lon": 14.5149598}, {"type": "node", "id": 6499429531, "lat": 48.3677713, "lon": 14.5122863}, {"type": "node", "id": 6499429532, "lat": 48.3677963, "lon": 14.5121408}, {"type": "node", "id": 6499429533, "lat": 48.367835, "lon": 14.511994}, {"type": "node", "id": 6499429541, "lat": 48.3679655, "lon": 14.511652}, {"type": "node", "id": 6499429542, "lat": 48.3680279, "lon": 14.5115474}, {"type": "node", "id": 6499429546, "lat": 48.368222, "lon": 14.5111854}, {"type": "node", "id": 6591934185, "lat": 48.3714089, "lon": 14.5155512}, {"type": "node", "id": 7359460306, "lat": 48.3770549, "lon": 14.5171129, "tags": {"amenity": "bench"}}, {"type": "node", "id": 7876629860, "lat": 48.3715944, "lon": 14.5170043, "tags": {"amenity": "bench", "backrest": "yes", "material": "wood"}}, {"type": "node", "id": 7876629861, "lat": 48.3715291, "lon": 14.517581, "tags": {"amenity": "bench", "backrest": "yes", "material": "wood"}}, {"type": "node", "id": 7876629862, "lat": 48.3710948, "lon": 14.5169299, "tags": {"amenity": "bench", "backrest": "yes", "material": "wood"}}, {"type": "node", "id": 7876636404, "lat": 48.368327, "lon": 14.5112564, "tags": {"amenity": "bench", "backrest": "yes", "material": "wood"}}, {"type": "node", "id": 7876726931, "lat": 48.3727702, "lon": 14.5157294}, {"type": "node", "id": 7876726932, "lat": 48.3727702, "lon": 14.5158068}, {"type": "node", "id": 7876726933, "lat": 48.3730264, "lon": 14.5158098}, {"type": "node", "id": 7876726934, "lat": 48.3730274, "lon": 14.5157339}, {"type": "node", "id": 7876726935, "lat": 48.3731082, "lon": 14.5160728}, {"type": "node", "id": 7876726936, "lat": 48.3730592, "lon": 14.516073}, {"type": "node", "id": 7876726937, "lat": 48.373058, "lon": 14.5162267}, {"type": "node", "id": 7876726938, "lat": 48.3730466, "lon": 14.5163781}, {"type": "node", "id": 7876726939, "lat": 48.3730263, "lon": 14.5165614}, {"type": "node", "id": 7876726940, "lat": 48.3729963, "lon": 14.5167364}, {"type": "node", "id": 7876726941, "lat": 48.3730487, "lon": 14.5167554}, {"type": "node", "id": 7876726942, "lat": 48.3731066, "lon": 14.5162305}, {"type": "node", "id": 7876726943, "lat": 48.3730751, "lon": 14.5165693}, {"type": "node", "id": 7876726944, "lat": 48.3730959, "lon": 14.516391}, {"type": "node", "id": 7876726945, "lat": 48.3731083, "lon": 14.5158093}, {"type": "node", "id": 7876726946, "lat": 48.3730664, "lon": 14.5158093}, {"type": "node", "id": 7876726947, "lat": 48.3730631, "lon": 14.5160294}, {"type": "node", "id": 7876726948, "lat": 48.3731079, "lon": 14.5160326}, {"type": "node", "id": 7876726949, "lat": 48.3731091, "lon": 14.5159181}, {"type": "node", "id": 7876726950, "lat": 48.3730339, "lon": 14.5168095}, {"type": "node", "id": 7876726951, "lat": 48.3729912, "lon": 14.5167911}, {"type": "node", "id": 7876726952, "lat": 48.3729426, "lon": 14.517022}, {"type": "node", "id": 7876726953, "lat": 48.3729882, "lon": 14.5170475}, {"type": "node", "id": 7876726954, "lat": 48.373017, "lon": 14.5169241}, {"type": "node", "id": 7876726955, "lat": 48.3729261, "lon": 14.5169298}, {"type": "node", "id": 7876726956, "lat": 48.3728314, "lon": 14.516884}, {"type": "node", "id": 7876726957, "lat": 48.3727951, "lon": 14.5170901}, {"type": "node", "id": 7876726958, "lat": 48.3728783, "lon": 14.5171302}, {"type": "node", "id": 7876726959, "lat": 48.3729756, "lon": 14.5171334}, {"type": "node", "id": 7876726960, "lat": 48.3729253, "lon": 14.5171041}, {"type": "node", "id": 7876726961, "lat": 48.3728834, "lon": 14.5172594}, {"type": "node", "id": 7876726962, "lat": 48.3728272, "lon": 14.5174146}, {"type": "node", "id": 7876726963, "lat": 48.3728665, "lon": 14.5174509}, {"type": "node", "id": 7876726964, "lat": 48.3729254, "lon": 14.5172997}, {"type": "node", "id": 7876726965, "lat": 48.3728488, "lon": 14.5174976}, {"type": "node", "id": 7876726966, "lat": 48.3728067, "lon": 14.5174688}, {"type": "node", "id": 7876726967, "lat": 48.3727761, "lon": 14.5175683}, {"type": "node", "id": 7876726968, "lat": 48.3727301, "lon": 14.5177051}, {"type": "node", "id": 7876726969, "lat": 48.3727656, "lon": 14.517734}, {"type": "node", "id": 7876726970, "lat": 48.3728125, "lon": 14.5176064}, {"type": "node", "id": 7876732166, "lat": 48.3720226, "lon": 14.5174789, "tags": {"amenity": "bench", "backrest": "yes", "material": "wood"}}, {"type": "node", "id": 7876732167, "lat": 48.3720146, "lon": 14.5174995, "tags": {"amenity": "bench", "backrest": "yes", "material": "wood"}}, {"type": "node", "id": 7879203861, "lat": 48.3681436, "lon": 14.5152457}, {"type": "node", "id": 7879203862, "lat": 48.3681407, "lon": 14.5152711}, {"type": "node", "id": 7879203863, "lat": 48.3680248, "lon": 14.5153114}, {"type": "node", "id": 7879203864, "lat": 48.3680301, "lon": 14.5152247}, {"type": "node", "id": 7879203865, "lat": 48.3678064, "lon": 14.5153518}, {"type": "node", "id": 7879203866, "lat": 48.3677765, "lon": 14.515359}, {"type": "node", "id": 7879203867, "lat": 48.3677838, "lon": 14.5154416}, {"type": "node", "id": 7879442989, "lat": 48.3709319, "lon": 14.5137756}, {"type": "node", "id": 7879442990, "lat": 48.370877, "lon": 14.5137736}, {"type": "node", "id": 7879442991, "lat": 48.370748, "lon": 14.5141188}, {"type": "node", "id": 7879442992, "lat": 48.3707416, "lon": 14.5143225}, {"type": "node", "id": 7879442993, "lat": 48.3708524, "lon": 14.5146486}, {"type": "node", "id": 7879442994, "lat": 48.3708506, "lon": 14.514691}, {"type": "node", "id": 7879442995, "lat": 48.3708983, "lon": 14.5146917}, {"type": "node", "id": 8119048345, "lat": 48.3660186, "lon": 14.5149472}, {"type": "node", "id": 8119048346, "lat": 48.3659956, "lon": 14.5149781}, {"type": "node", "id": 8119048347, "lat": 48.3660008, "lon": 14.5150064}, {"type": "node", "id": 8119048348, "lat": 48.3660115, "lon": 14.5150211}, {"type": "node", "id": 8119048349, "lat": 48.3660452, "lon": 14.5150296}, {"type": "node", "id": 8119048350, "lat": 48.3660651, "lon": 14.5150437}, {"type": "node", "id": 8119048351, "lat": 48.3660055, "lon": 14.5149627}, {"type": "node", "id": 8138143121, "lat": 48.3677877, "lon": 14.5161364}, {"type": "node", "id": 8138143122, "lat": 48.3677324, "lon": 14.5160597}, {"type": "node", "id": 8138143123, "lat": 48.3676197, "lon": 14.516223}, {"type": "node", "id": 8138143124, "lat": 48.3675759, "lon": 14.5160526}, {"type": "node", "id": 8138143125, "lat": 48.3676893, "lon": 14.5159986}, {"type": "node", "id": 8138143126, "lat": 48.3676817, "lon": 14.5159553}, {"type": "node", "id": 8138143127, "lat": 48.367866, "lon": 14.5158612}, {"type": "node", "id": 8146286491, "lat": 48.3666301, "lon": 14.515955}, {"type": "node", "id": 8146286494, "lat": 48.3665981, "lon": 14.5159695}, {"type": "node", "id": 8146286495, "lat": 48.3665824, "lon": 14.5158925}, {"type": "node", "id": 8146286496, "lat": 48.3666145, "lon": 14.5158768}, {"type": "node", "id": 8146286497, "lat": 48.3665568, "lon": 14.5157751}, {"type": "node", "id": 8146286498, "lat": 48.3665716, "lon": 14.5157369}, {"type": "node", "id": 8146286499, "lat": 48.3665945, "lon": 14.5157624}, {"type": "node", "id": 8146286503, "lat": 48.3665056, "lon": 14.515874, "tags": {"addr:city": "Hagenberg im M\u00fchlkreis", "addr:housenumber": "5", "addr:postcode": "4232", "addr:street": "Weingarten", "amenity": "doctors", "healthcare": "doctor"}}, {"type": "node", "id": 8296641784, "lat": 48.3739801, "lon": 14.5157735}, {"type": "node", "id": 8310894808, "lat": 48.3701578, "lon": 14.5168913}, {"type": "node", "id": 8310894809, "lat": 48.3697019, "lon": 14.5159799}, {"type": "node", "id": 8310894810, "lat": 48.3698319, "lon": 14.5154238}, {"type": "node", "id": 8310894811, "lat": 48.369844, "lon": 14.5158651}, {"type": "node", "id": 8310894812, "lat": 48.3698275, "lon": 14.5162572}, {"type": "node", "id": 8391889133, "lat": 48.3671283, "lon": 14.5174995}, {"type": "node", "id": 8391889134, "lat": 48.3671325, "lon": 14.517809}, {"type": "node", "id": 8391889135, "lat": 48.3670779, "lon": 14.5178108}, {"type": "node", "id": 8391889136, "lat": 48.3670744, "lon": 14.5175022}, {"type": "node", "id": 8529935257, "lat": 48.3707284, "lon": 14.5127072}, {"type": "node", "id": 8833358166, "lat": 48.3667533, "lon": 14.5200276, "tags": {"amenity": "community_centre", "name": "Musikheim Hagenberg", "operator": "Musikverein Hagenberg"}}, {"type": "node", "id": 9143767523, "lat": 48.3731927, "lon": 14.5122157}, {"type": "node", "id": 9143767527, "lat": 48.3731435, "lon": 14.5103589}, {"type": "node", "id": 9516247984, "lat": 48.3701615, "lon": 14.5135937, "tags": {"access": "yes", "amenity": "parking", "capacity": "100", "capacity:disabled": "4", "fee": "yes", "layer": "-1", "operator": "Fahrner GmbH", "operator:type": "private", "parking": "underground", "payment:credit_cards": "yes", "payment:debit_cards": "yes", "surface": "asphalt"}}, {"type": "node", "id": 9516253911, "lat": 48.3683079, "lon": 14.5118704, "tags": {"access": "yes", "amenity": "charging_station", "brand": "Keba", "capacity": "4", "description": "E-Ladestationen 11kW FH Studentenparkplatz", "fee": "yes", "fixme": "specify payments: diverse_ladekarten", "operator": "Linz AG", "operator:wikidata": "Q1827148", "operator:wikipedia": "de:Linz AG"}}, {"type": "node", "id": 9670670128, "lat": 48.3671281, "lon": 14.517773, "tags": {"access": "yes", "amenity": "charging_station", "capacity": "2", "covered": "no", "fee": "yes", "operator": "has.to.be", "socket:type2": "2", "socket:type2:output": "22kW"}}, {"type": "node", "id": 9671007150, "lat": 48.370692, "lon": 14.5159097, "tags": {"addr:city": "Hagenberg im M\u00fchlkreis", "addr:housenumber": "103", "addr:postcode": "4232", "addr:street": "Hauptstra\u00dfe", "amenity": "restaurant", "breakfast:buffet": "Mo-Fr 06:30-10:30; Sa,Su,PH 07:00-11:00", "cuisine": "regional", "internet_access": "wlan", "level": "0", "name": "Park Restaurant", "opening_hours": "Mo-Fr 06:30-23:00; Sa,Su,PH 07:00-23:00", "opening_hours:kitchen": "Tu-Sa 11:30-14:00,17:30-20:30; Su,Mo off", "operator": "Best Western", "phone": "+43 7236 2848662", "website": "https://www.bestwestern.at/hotels/Hagenberg-im-Muehlkreis/Best-Western-Parkhotel-Hagenberg/gastronomie"}}, {"type": "node", "id": 9712036883, "lat": 48.3699684, "lon": 14.5154218}, {"type": "node", "id": 9712036884, "lat": 48.3703688, "lon": 14.5157967}, {"type": "node", "id": 9712036885, "lat": 48.3704717, "lon": 14.5160542}, {"type": "node", "id": 9712036887, "lat": 48.3703595, "lon": 14.5172082}, {"type": "node", "id": 9712036888, "lat": 48.3703394, "lon": 14.5172102}, {"type": "node", "id": 9712036889, "lat": 48.3703238, "lon": 14.5171948}, {"type": "node", "id": 10038922311, "lat": 48.3722847, "lon": 14.5172966}, {"type": "node", "id": 10038922312, "lat": 48.3722188, "lon": 14.5175247}, {"type": "node", "id": 10737423055, "lat": 48.3699657, "lon": 14.5132974}, {"type": "node", "id": 10737423056, "lat": 48.3699503, "lon": 14.5135284}, {"type": "node", "id": 10737423057, "lat": 48.3705026, "lon": 14.5135653}, {"type": "node", "id": 10737423058, "lat": 48.3704934, "lon": 14.5133436}, {"type": "node", "id": 11241238756, "lat": 48.3682837, "lon": 14.5110137}, {"type": "node", "id": 11241238757, "lat": 48.368414, "lon": 14.5108462}, {"type": "node", "id": 11241238758, "lat": 48.3685717, "lon": 14.5107544}, {"type": "node", "id": 11241238759, "lat": 48.3687411, "lon": 14.5107284}, {"type": "node", "id": 11241238760, "lat": 48.3688664, "lon": 14.5107359}, {"type": "node", "id": 11241238761, "lat": 48.3689664, "lon": 14.5107637}, {"type": "node", "id": 11241238762, "lat": 48.3690425, "lon": 14.5107957}, {"type": "node", "id": 11241238763, "lat": 48.3691269, "lon": 14.5108529}, {"type": "node", "id": 11241238764, "lat": 48.3691672, "lon": 14.5109118}, {"type": "node", "id": 11241238765, "lat": 48.3691979, "lon": 14.5110019}, {"type": "node", "id": 11241238766, "lat": 48.3692197, "lon": 14.5110886}, {"type": "node", "id": 11241238767, "lat": 48.3691509, "lon": 14.5112627}, {"type": "node", "id": 11241238768, "lat": 48.3691465, "lon": 14.5111669}, {"type": "node", "id": 11241238769, "lat": 48.3691375, "lon": 14.5110659}, {"type": "node", "id": 11241238770, "lat": 48.3691107, "lon": 14.5109859}, {"type": "node", "id": 11241238771, "lat": 48.3690677, "lon": 14.5109379}, {"type": "node", "id": 11241238772, "lat": 48.3689793, "lon": 14.5109009}, {"type": "node", "id": 11241238773, "lat": 48.368877, "lon": 14.5109388}, {"type": "node", "id": 11241238774, "lat": 48.368731, "lon": 14.511017}, {"type": "node", "id": 11241238775, "lat": 48.368712, "lon": 14.5110633}, {"type": "node", "id": 11241238776, "lat": 48.3687165, "lon": 14.5111197}, {"type": "node", "id": 11241238777, "lat": 48.3687195, "lon": 14.5111642}, {"type": "node", "id": 11241238778, "lat": 48.3683821, "lon": 14.511049}, {"type": "node", "id": 11241238779, "lat": 48.3684621, "lon": 14.5109766}, {"type": "node", "id": 11241238780, "lat": 48.3685493, "lon": 14.5109034}, {"type": "node", "id": 11241238781, "lat": 48.3686584, "lon": 14.5108706}, {"type": "node", "id": 11241238782, "lat": 48.3687215, "lon": 14.5108706}, {"type": "node", "id": 11241238783, "lat": 48.3687338, "lon": 14.5109203}, {"type": "node", "id": 11241238784, "lat": 48.3689016, "lon": 14.510842}, {"type": "node", "id": 11241238785, "lat": 48.3688815, "lon": 14.510831}, {"type": "node", "id": 11241238786, "lat": 48.368811, "lon": 14.5108647}, {"type": "node", "id": 11241238787, "lat": 48.3687428, "lon": 14.5108647}, {"type": "node", "id": 11241238788, "lat": 48.3687053, "lon": 14.5108605}, {"type": "node", "id": 11241238789, "lat": 48.3686377, "lon": 14.5108655}, {"type": "node", "id": 11241238790, "lat": 48.3685488, "lon": 14.5108925}, {"type": "node", "id": 11241238791, "lat": 48.3684716, "lon": 14.5109548}, {"type": "node", "id": 11241238792, "lat": 48.3683928, "lon": 14.5110297}, {"type": "node", "id": 11241238793, "lat": 48.3683682, "lon": 14.5110061}, {"type": "node", "id": 11241238794, "lat": 48.3683178, "lon": 14.5110802}, {"type": "node", "id": 11241238795, "lat": 48.3682932, "lon": 14.5111467}, {"type": "node", "id": 11241238796, "lat": 48.3682882, "lon": 14.5112057}, {"type": "node", "id": 11549689740, "lat": 48.3730338, "lon": 14.5103625}, {"type": "node", "id": 11549689742, "lat": 48.3729378, "lon": 14.5108034}, {"type": "node", "id": 11549689743, "lat": 48.3730441, "lon": 14.5107977}, {"type": "node", "id": 11549689744, "lat": 48.3730599, "lon": 14.5111074}, {"type": "node", "id": 11549689745, "lat": 48.3729497, "lon": 14.5111129}, {"type": "node", "id": 11549689746, "lat": 48.3729592, "lon": 14.5115435}, {"type": "node", "id": 11549689747, "lat": 48.3730694, "lon": 14.511538}, {"type": "node", "id": 11549689748, "lat": 48.3730794, "lon": 14.5118068}, {"type": "node", "id": 11549689749, "lat": 48.372971, "lon": 14.5118115}, {"type": "node", "id": 11549689751, "lat": 48.3730877, "lon": 14.5122374}, {"type": "node", "id": 11700613083, "lat": 48.3740308, "lon": 14.5136297}, {"type": "node", "id": 11835477151, "lat": 48.3665145, "lon": 14.5144565, "tags": {"access": "yes", "amenity": "charging_station", "capacity": "1", "covered": "no", "fee": "yes", "operator": "has.to.be", "socket:type2": "1", "socket:type2:output": "7.4kW"}}, {"type": "node", "id": 12009506501, "lat": 48.3731835, "lon": 14.5118686}, {"type": "node", "id": 12009506502, "lat": 48.3732584, "lon": 14.5118669}, {"type": "node", "id": 12009506503, "lat": 48.373226, "lon": 14.5106288}, {"type": "node", "id": 12009506504, "lat": 48.3731508, "lon": 14.5106343}, {"type": "node", "id": 12009506505, "lat": 48.3731474, "lon": 14.5105066}, {"type": "node", "id": 12009506506, "lat": 48.3732654, "lon": 14.5105064, "tags": {"access": "private", "addr:city": "Hagenberg im M\u00fchlkreis", "addr:housenumber": "14;15", "addr:postcode": "4232", "addr:street": "K\u00fchtreiber-Stra\u00dfe", "amenity": "parking_entrance", "level": "-1", "parking": "underground"}}, {"type": "node", "id": 12041658364, "lat": 48.3705863, "lon": 14.5120171}, {"type": "node", "id": 12041658365, "lat": 48.3706211, "lon": 14.5120206}, {"type": "node", "id": 12041658366, "lat": 48.3705533, "lon": 14.5116804}, {"type": "node", "id": 12041658367, "lat": 48.3705971, "lon": 14.5117746}, {"type": "node", "id": 12041658368, "lat": 48.3707156, "lon": 14.5116928}, {"type": "node", "id": 12041662969, "lat": 48.3706724, "lon": 14.5117822}, {"type": "node", "id": 12041662970, "lat": 48.370666, "lon": 14.5119255}, {"type": "node", "id": 12041662971, "lat": 48.3707525, "lon": 14.5119342}, {"type": "node", "id": 12041662972, "lat": 48.370763, "lon": 14.5116976}, {"type": "node", "id": 12041662973, "lat": 48.3705566, "lon": 14.5116076}, {"type": "node", "id": 12041662974, "lat": 48.3707186, "lon": 14.511624}, {"type": "node", "id": 12168637743, "lat": 48.3739998, "lon": 14.5203003, "tags": {"amenity": "bench"}}, {"type": "node", "id": 12188307475, "lat": 48.3746553, "lon": 14.5146677, "tags": {"entrance": "main", "wheelchair": "yes"}}, {"type": "node", "id": 12188307476, "lat": 48.3723536, "lon": 14.5160958, "tags": {"access": "private", "addr:city": "Hagenberg im M\u00fchlkreis", "addr:country": "AT", "addr:housenumber": "100", "addr:postcode": "4232", "addr:street": "Softwarepark", "entrance": "main"}}, {"type": "node", "id": 12188307477, "lat": 48.3724833, "lon": 14.5162122, "tags": {"access": "private", "addr:city": "Hagenberg im M\u00fchlkreis", "addr:country": "AT", "addr:housenumber": "100", "addr:postcode": "4232", "addr:street": "Softwarepark", "entrance": "secondary"}}, {"type": "node", "id": 12188307478, "lat": 48.3724678, "lon": 14.5157159, "tags": {"access": "private", "addr:city": "Hagenberg im M\u00fchlkreis", "addr:country": "AT", "addr:housenumber": "100", "addr:postcode": "4232", "addr:street": "Softwarepark", "entrance": "secondary"}}, {"type": "node", "id": 12196908071, "lat": 48.3725904, "lon": 14.5155219}, {"type": "node", "id": 12196908072, "lat": 48.3725331, "lon": 14.5154878}, {"type": "node", "id": 12196908073, "lat": 48.3725693, "lon": 14.5153398}, {"type": "node", "id": 12196908074, "lat": 48.372471, "lon": 14.5152593}, {"type": "node", "id": 12196908075, "lat": 48.3721799, "lon": 14.5162456}, {"type": "node", "id": 12196908076, "lat": 48.3722836, "lon": 14.5163155}, {"type": "node", "id": 12196908077, "lat": 48.3725309, "lon": 14.5157345}, {"type": "way", "id": 7009738, "nodes": [54158937, 54156115, 54157473, 5405603545, 54158523, 54155648, 5405603543, 1448814969, 5405603542, 54156150, 54157374, 5405603544, 54158370, 54158937], "tags": {"access": "yes", "amenity": "parking", "fee": "no", "parking": "surface"}}, {"type": "way", "id": 8009454, "nodes": [59931690, 59931693, 59931692, 59931691, 59931690], "tags": {"access": "private", "amenity": "parking", "created_by": "Potlatch 0.10", "layer": "-1", "parking": "underground"}}, {"type": "way", "id": 8009455, "nodes": [59931697, 59931694, 388036061, 2624745265, 1366808891, 1366808878, 1366808877, 1366808879, 59931697], "tags": {"access": "private", "amenity": "parking", "layer": "-1", "parking": "underground"}}, {"type": "way", "id": 8009461, "nodes": [59931709, 1300260941, 1300260898, 1300260878, 59931707, 59931708, 1300260983, 1300260854, 59931709], "tags": {"access": "private", "amenity": "parking", "parking": "surface", "wheelchair": "yes"}}, {"type": "way", "id": 8009462, "nodes": [59931714, 1300261022, 1300260910, 59931711, 59931712, 59931713, 59931714], "tags": {"access": "private", "amenity": "parking", "parking": "surface", "wheelchair": "yes"}}, {"type": "way", "id": 8009463, "nodes": [59931719, 1300260973, 1300260877, 59931716, 59931717, 415582463, 59931718, 59931719], "tags": {"access": "private", "amenity": "parking", "parking": "surface"}}, {"type": "way", "id": 8009469, "nodes": [59931730, 59931725, 59931726, 59931727, 59931728, 59931729, 59931730], "tags": {"access": "yes", "amenity": "parking", "created_by": "JOSM", "fee": "no", "parking": "street_side", "wheelchair": "yes"}}, {"type": "way", "id": 8010577, "nodes": [59937239, 59937241, 405132136, 59937240, 59937239], "tags": {"amenity": "parking", "wheelchair": "yes"}}, {"type": "way", "id": 28158416, "nodes": [309287144, 309287151, 309287147, 309287149, 309287144], "tags": {"access": "restricted", "amenity": "parking", "parking": "surface", "wheelchair": "yes"}}, {"type": "way", "id": 33631451, "nodes": [384740655, 1448814991, 942837989, 384740656, 1448814976, 1448814979, 1448814977, 384740657, 384740658, 1448814981, 384740659, 1448814992, 1448814996, 1448814993, 1448814995, 384740660, 384740655], "tags": {"access": "customers", "amenity": "parking", "fee": "no", "parking": "surface", "wheelchair": "yes"}}, {"type": "way", "id": 33631522, "nodes": [384741764, 384741765, 384741766, 384741767, 413429516, 384741764], "tags": {"amenity": "grave_yard", "fixme": "yes; bigger!"}}, {"type": "way", "id": 35269654, "nodes": [1300226057, 413478068, 413426729, 1300226092, 413426730, 413426731, 413426732, 413426733, 413426734, 1300226090, 5405603609, 413426735, 8119048350, 8119048349, 413426736, 8119048348, 8119048347, 8119048346, 8119048351, 8119048345, 413426738, 1300226045, 1300226057], "tags": {"amenity": "place_of_worship", "building": "church", "denomination": "catholic", "name": "Schlosskirche", "religion": "christian", "wheelchair": "limited"}}, {"type": "way", "id": 35270090, "nodes": [413436158, 413436159, 1383628466, 413436161, 413436162, 413436158], "tags": {"amenity": "parking", "source": "geoimage.at", "wheelchair": "yes"}}, {"type": "way", "id": 41567484, "nodes": [509941622, 509941629, 509941647, 509941649, 6591934185, 4935464839, 509941622], "tags": {"amenity": "parking", "wheelchair": "yes"}}, {"type": "way", "id": 41567485, "nodes": [2137749164, 2137749174, 2137749180, 2137749184, 2137749182, 2137749167, 2137749154, 2137749157, 2137749164], "tags": {"access": "yes", "amenity": "parking", "fee": "no", "wheelchair": "yes"}}, {"type": "way", "id": 41567487, "nodes": [3954239068, 509941740, 12041658366, 12041662973, 12041662974, 12041658368, 12041662972, 12041662971, 12041662970, 12041662969, 12041658367, 12041658364, 12041658365, 509941756, 3954239068], "tags": {"access": "private", "amenity": "parking", "source": "knowledge;geoimage.at"}}, {"type": "way", "id": 41919174, "nodes": [519053788, 3590667698, 3590667697, 519053797, 519053807, 3590667684, 11700613083, 519053815, 8296641784, 3590667678, 3590667686, 519053885, 3590667689, 3590667692, 3590667693, 519053889, 3590667694, 3590667695, 3590667699, 3590667702, 3590667704, 519053891, 3590667706, 3590667705, 3590667703, 3590667701, 519053788], "tags": {"amenity": "school", "source": "basemap.at Orthofoto"}}, {"type": "way", "id": 51137432, "nodes": [5724043441, 5724043440, 5724043437, 5724043436, 5724043438, 5724043439, 413449579, 413449796, 413449801, 1383628459, 652408889, 5724043441], "tags": {"access": "customers", "amenity": "parking", "fee": "no", "parking": "surface", "wheelchair": "yes"}}, {"type": "way", "id": 80697450, "nodes": [941268678, 941268681, 941268682, 941268685, 941268678], "tags": {"addr:city": "Hagenberg im M\u00fchlkreis", "addr:country": "AT", "addr:housename": "Altstoffsammelzentrum", "addr:housenumber": "88", "addr:place": "Veichter", "addr:postcode": "4232", "amenity": "recycling", "building": "yes", "name": "Altstoffsammelzentrum Hagenberg", "recycling_type": "centre"}}, {"type": "way", "id": 80727195, "nodes": [941467525, 941467526, 941467527, 941467528, 941467525], "tags": {"amenity": "shelter", "building": "yes", "shelter_type": "public_transport"}}, {"type": "way", "id": 80727196, "nodes": [941467529, 941467530, 941467531, 941467532, 941467529], "tags": {"amenity": "shelter", "building": "yes", "shelter_type": "public_transport"}}, {"type": "way", "id": 114895868, "nodes": [1300260886, 1300260971, 1300260872, 1300260952, 1300260886], "tags": {"access": "restricted", "amenity": "parking", "parking": "street_side", "wheelchair": "yes"}}, {"type": "way", "id": 114895875, "nodes": [1300260909, 1300260985, 1300260892, 1300261010, 1300260909], "tags": {"access": "restricted", "amenity": "parking", "parking": "surface", "wheelchair": "yes"}}, {"type": "way", "id": 118293812, "nodes": [2353387074, 10038922311, 10038922312, 1330634117, 2353387073, 2280545962, 1330634112, 519053827, 2353387078, 2353387074], "tags": {"access": "yes", "amenity": "parking", "fee": "no", "parking": "surface", "wheelchair": "yes"}}, {"type": "way", "id": 122271432, "nodes": [1366808954, 1366808968, 1366808970, 5744285896, 5744285897, 1366808963, 1366808956, 1366808953, 1366808954], "tags": {"access": "permissive", "amenity": "parking", "parking": "surface", "source": "knowledge;geoimage.at", "wheelchair": "yes"}}, {"type": "way", "id": 122271434, "nodes": [1366808926, 1366808931, 292979684, 292979683, 1366808949, 292979669, 292979671, 292979673, 292979681, 1300260834, 413516177, 1366808916, 1366808926], "tags": {"access": "private", "amenity": "parking", "layer": "-1", "parking": "underground", "source": "knowledge"}}, {"type": "way", "id": 122271442, "nodes": [1366808947, 1366808946, 1366808944, 1366808945, 1366808947], "tags": {"access": "private", "amenity": "parking", "parking": "surface", "source": "knowledge;geoimage.at"}}, {"type": "way", "id": 122271444, "nodes": [1366808899, 2024619789, 1383020855, 2024619788, 1366808898, 1366808900, 1366808903, 1366808899], "tags": {"access": "private", "amenity": "parking", "parking": "surface", "source": "knowledge;geoimage.at"}}, {"type": "way", "id": 122271447, "nodes": [1366808904, 1366808902, 1519553520, 1366808906, 1366808904], "tags": {"access": "private", "amenity": "parking", "parking": "surface", "source": "knowledge;geoimage.at"}}, {"type": "way", "id": 122271448, "nodes": [1366808869, 1366808872, 1366808873, 1366808870, 1366808869], "tags": {"amenity": "parking", "parking": "surface", "source": "knowledge;geoimage.at", "wheelchair": "yes"}}, {"type": "way", "id": 122271449, "nodes": [5744090038, 5744090040, 1366808911, 5744090039, 5744090038], "tags": {"access": "customers", "amenity": "parking", "description": "Kundenparkplatz IT-Center", "parking": "surface"}}, {"type": "way", "id": 122271452, "nodes": [1366808893, 1366808896, 1366808897, 1366808892, 1366808893], "tags": {"access": "private", "amenity": "parking", "park_ride": "no", "parking": "surface"}}, {"type": "way", "id": 122271454, "nodes": [1366808942, 1366808941, 1366808948, 1366808950, 1366808942], "tags": {"access": "private", "amenity": "parking", "parking": "surface"}}, {"type": "way", "id": 122271457, "nodes": [1366808888, 1366808895, 1366808894, 1366808890, 1366808884, 1366808887, 1366808888], "tags": {"access": "customers", "amenity": "parking", "fee": "no", "parking": "surface", "source": "knowledge;geoimage.at", "wheelchair": "yes"}}, {"type": "way", "id": 122271458, "nodes": [1366808875, 1366808876, 309287149, 309287144, 1366808883, 1366808882, 1366808875], "tags": {"access": "private", "amenity": "parking", "parking": "surface", "source": "knowledge;geoimage.at"}}, {"type": "way", "id": 122271460, "nodes": [1366808914, 1366808930, 1366808929, 1519578596, 1366808935, 2225364926, 1519578592, 1366808936, 1366808924, 1366808925, 1366808913, 1366808914], "tags": {"access": "private", "amenity": "parking", "parking": "surface", "source": "knowledge;geoimage.at"}}, {"type": "way", "id": 122379938, "nodes": [304193555, 302681286, 1802165878, 1367722614, 1367722613, 1802165880, 304193555], "tags": {"access": "private", "amenity": "parking", "parking": "street_side"}}, {"type": "way", "id": 122379939, "nodes": [302681346, 304193551, 1802165879, 1367722617, 1367722609, 1802165877, 302681346], "tags": {"access": "private", "amenity": "parking", "parking": "street_side"}}, {"type": "way", "id": 124198679, "nodes": [304523856, 245049199, 302684187, 1383020860, 1383020858, 1383020857, 2024619789, 1383020855, 2024619788, 1383020853, 11241238796, 6499429546, 2024619786, 2024619783, 2024619780, 2024619781, 6499429542, 6499429541, 1383020849, 6499429533, 6499429532, 6499429531, 940215078, 940215074, 940215072, 940215054, 405132124, 413418699, 304523856], "tags": {"amenity": "university", "name": "FH Ober\u00f6sterreich Campus Hagenberg", "toilets:wheelchair": "yes", "website": "https://www.fh-hagenberg.at/", "wheelchair": "yes"}}, {"type": "way", "id": 138576842, "nodes": [1519548439, 1519548443, 1519548436, 1519548434, 1519548439], "tags": {"access": "restricted", "amenity": "parking", "parking": "street_side", "wheelchair": "yes"}}, {"type": "way", "id": 138576844, "nodes": [1519548464, 1519548468, 1519548461, 1519548459, 1519548464], "tags": {"access": "restricted", "amenity": "parking", "parking": "surface", "wheelchair": "yes"}}, {"type": "way", "id": 190198520, "nodes": [2007989879, 2007989881, 2007989871, 2007989868, 2007989879], "tags": {"access": "private", "amenity": "parking", "parking": "surface", "source": "knowledge;geoimage.at"}}, {"type": "way", "id": 190198522, "nodes": [2007989875, 2007989873, 2007989877, 2007989883, 2007989875], "tags": {"access": "private", "amenity": "parking", "parking": "surface", "source": "knowledge;geoimage.at"}}, {"type": "way", "id": 190198525, "nodes": [2007989892, 2007989898, 2007989866, 2007989863, 2007989892], "tags": {"access": "private", "amenity": "parking", "parking": "surface", "source": "knowledge;geoimage.at"}}, {"type": "way", "id": 190198527, "nodes": [2007989886, 2007989853, 2007989855, 2007989889, 2007989886], "tags": {"access": "private", "amenity": "parking", "parking": "surface", "source": "knowledge;geoimage.at", "surface": "gravel"}}, {"type": "way", "id": 191900909, "nodes": [2024619786, 6499429546, 11241238796, 1383020853, 2024619788, 1383020855, 2024619789, 2024619787, 2024619784, 2024619781, 2024619780, 2024619783, 2024619786], "tags": {"access": "permit", "amenity": "parking", "fee": "no", "parking": "surface", "surface": "gravel"}}, {"type": "way", "id": 212720038, "nodes": [2225364901, 2225364899, 2225364894, 2225364895, 2225364901], "tags": {"access": "private", "amenity": "bicycle_parking", "bicycle_parking": "building", "covered": "yes"}}, {"type": "way", "id": 212720040, "nodes": [2225364936, 2225364934, 2225364927, 2225364928, 2225751042, 2225364936], "tags": {"access": "private", "amenity": "bicycle_parking", "bicycle_parking": "building", "covered": "yes"}}, {"type": "way", "id": 216649406, "nodes": [2260391894, 2260391892, 2260391893, 2260391895, 2260391894], "tags": {"access": "restricted", "amenity": "parking", "wheelchair": "yes"}}, {"type": "way", "id": 222142394, "nodes": [2311172925, 2311172929, 2311172930, 3829773986, 3829773987, 2311172934, 2311172933, 2311172932, 2311172928, 2311172927, 2311172926, 2311172925], "tags": {"amenity": "parking", "source": "survey", "wheelchair": "yes"}}, {"type": "way", "id": 392160698, "nodes": [8529935257, 3954239073, 3954239078, 3954239077, 8529935257], "tags": {"access": "private", "amenity": "parking", "wheelchair": "yes"}}, {"type": "way", "id": 579642195, "nodes": [5550803128, 5550803147, 5550803146, 5550803149, 12188307475, 5550803129, 5550803141, 5550803140, 5550803127, 5550803136, 5550803135, 5550803134, 5550803131, 5550803128]}, {"type": "way", "id": 579642196, "nodes": [5550803130, 5550803133, 5550803132, 5550803126, 5550803130]}, {"type": "way", "id": 579642197, "nodes": [5550803137, 5550803139, 5550803138, 5550803148, 5550803137]}, {"type": "way", "id": 579642198, "nodes": [5550803145, 5550803144, 5550803143, 5550803142, 5550803145]}, {"type": "way", "id": 579642208, "nodes": [5105798362, 5550803199, 12188307476, 12188307478, 5550803198, 12196908077, 5550803197, 12188307477, 5105798362], "tags": {"addr:city": "Hagenberg im M\u00fchlkreis", "addr:country": "AT", "addr:housenumber": "100", "addr:postcode": "4232", "addr:street": "Softwarepark", "amenity": "fire_station", "building": "yes", "contact:email": "office@feuerwehr-hagenberg.at", "contact:website": "http://www.feuerwehr-hagenberg.at/", "name": "Freiwillige Feuerwehr Hagenberg"}}, {"type": "way", "id": 605684505, "nodes": [5744090043, 1366808921, 1366808922, 5744090044, 5744090043], "tags": {"access": "private", "amenity": "parking", "parking": "surface"}}, {"type": "way", "id": 605684506, "nodes": [5744090046, 1366808940, 1366808939, 5744090045, 5744090046], "tags": {"access": "private", "amenity": "parking", "parking": "surface"}}, {"type": "way", "id": 844410012, "nodes": [7876726931, 7876726932, 7876726933, 7876726934, 7876726931], "tags": {"access": "private", "amenity": "parking", "capacity": "10", "fee": "no", "parking": "surface", "surface": "asphalt"}}, {"type": "way", "id": 844410013, "nodes": [7876726935, 7876726936, 7876726937, 7876726938, 7876726939, 7876726940, 7876726941, 7876726943, 7876726944, 7876726942, 7876726935], "tags": {"access": "private", "amenity": "parking", "capacity": "18", "capacity:disabled": "1", "fee": "no", "parking": "surface", "surface": "asphalt"}}, {"type": "way", "id": 844410014, "nodes": [7876726945, 7876726946, 7876726947, 7876726948, 7876726949, 7876726945], "tags": {"access": "private", "amenity": "parking", "capacity": "6", "fee": "no", "parking": "surface", "surface": "asphalt"}}, {"type": "way", "id": 844410015, "nodes": [7876726950, 7876726951, 7876726952, 7876726953, 7876726954, 7876726950], "tags": {"access": "private", "amenity": "parking", "capacity": "6", "capacity:disabled": "1", "fee": "no", "parking": "surface", "surface": "asphalt"}}, {"type": "way", "id": 844410016, "nodes": [7876726955, 7876726956, 7876726957, 7876726958, 7876726955], "tags": {"access": "private", "amenity": "parking", "capacity": "8", "fee": "no", "parking": "surface", "surface": "asphalt"}}, {"type": "way", "id": 844410017, "nodes": [7876726959, 7876726960, 7876726961, 7876726962, 7876726963, 7876726964, 7876726959], "tags": {"access": "private", "amenity": "parking", "capacity": "8", "fee": "no", "parking": "surface", "surface": "asphalt"}}, {"type": "way", "id": 844410018, "nodes": [7876726965, 7876726966, 7876726967, 7876726968, 7876726969, 7876726970, 7876726965], "tags": {"access": "private", "amenity": "parking", "capacity": "7", "capacity:disabled": "1", "fee": "no", "parking": "surface", "surface": "asphalt"}}, {"type": "way", "id": 844617183, "nodes": [7879442989, 7879442990, 1330637147, 1330637158, 1330637157, 7879442991, 7879442992, 1330637154, 1330637153, 1330637156, 7879442993, 7879442994, 7879442995, 7879442989], "tags": {"access": "private", "amenity": "parking", "fee": "no", "parking": "surface", "surface": "asphalt"}}, {"type": "way", "id": 844618494, "nodes": [7879203861, 7879203862, 7879203863, 7879203864, 7879203861], "tags": {"access": "private", "amenity": "parking", "fee": "no", "parking": "surface", "surface": "asphalt"}}, {"type": "way", "id": 844618495, "nodes": [7879203865, 7879203866, 7879203867, 1300260825, 7879203865], "tags": {"access": "private", "amenity": "parking_space", "capacity": "1"}}, {"type": "way", "id": 874137358, "nodes": [942837797, 8138143121, 8138143122, 8138143123, 8138143124, 8138143125, 8138143126, 8138143127, 942837797], "tags": {"amenity": "parking", "capacity": "13", "fee": "no", "maxstay": "1.5 hours", "parking": "surface", "surface": "asphalt"}}, {"type": "way", "id": 875171391, "nodes": [8146286495, 8146286496, 8146286491, 8146286494, 8146286495], "tags": {"access": "customers", "amenity": "parking"}}, {"type": "way", "id": 875171392, "nodes": [8146286495, 8146286497, 8146286498, 8146286499, 8146286496, 8146286495], "tags": {"access": "private", "amenity": "parking"}}, {"type": "way", "id": 894186298, "nodes": [2280527835, 9712036884, 9712036885, 2280527839, 9712036887, 9712036888, 9712036889, 8310894808, 8310894812, 8310894809, 8310894811, 8310894810, 9712036883, 2280527835], "tags": {"amenity": "kindergarten", "name": "Pfarrcaritaskindergarten Hagenberg"}}, {"type": "way", "id": 903552216, "nodes": [8391889133, 8391889134, 8391889135, 8391889136, 8391889133], "tags": {"access": "yes", "amenity": "parking", "fee": "no", "maxstay": "2 hours", "parking": "surface", "surface": "asphalt"}}, {"type": "way", "id": 1154551523, "nodes": [10737423055, 10737423056, 10737423057, 10737423058, 10737423055], "tags": {"access": "private", "amenity": "parking", "parking": "surface", "surface": "gravel"}}, {"type": "way", "id": 1213311475, "nodes": [6499429546, 11241238756, 11241238757, 11241238758, 11241238759, 11241238760, 11241238761, 11241238762, 11241238763, 11241238764, 11241238765, 11241238766, 302681501, 11241238767, 11241238768, 11241238769, 11241238770, 11241238771, 11241238772, 11241238773, 11241238774, 11241238775, 11241238776, 11241238777, 1383020853, 2007989848, 2007989858, 11241238778, 11241238779, 11241238780, 11241238781, 11241238782, 11241238783, 11241238784, 11241238785, 11241238786, 11241238787, 11241238788, 11241238789, 11241238790, 11241238791, 11241238792, 11241238793, 11241238794, 11241238795, 11241238796, 6499429546], "tags": {"access": "permit", "amenity": "parking", "parking": "surface", "surface": "gravel"}}, {"type": "way", "id": 1296044774, "nodes": [9143767527, 11549689740, 11549689743, 11549689742, 11549689745, 11549689744, 11549689747, 11549689746, 11549689749, 11549689748, 11549689751, 9143767523, 12009506501, 12009506504, 12009506505, 9143767527], "tags": {"access": "private", "addr:city": "Hagenberg im M\u00fchlkreis", "addr:housenumber": "11;12;13", "addr:postcode": "4232", "addr:street": "K\u00fchtreiber-Stra\u00dfe", "amenity": "parking", "parking": "surface", "surface": "asphalt"}}, {"type": "way", "id": 1296044775, "nodes": [12009506501, 12009506502, 12009506503, 12009506504, 12009506501], "tags": {"access": "private", "addr:city": "Hagenberg im M\u00fchlkreis", "addr:housenumber": "14;15", "addr:postcode": "4232", "addr:street": "K\u00fchtreiber-Stra\u00dfe", "amenity": "parking", "parking": "surface", "surface": "asphalt"}}, {"type": "way", "id": 1317875018, "nodes": [12196908071, 12196908072, 12196908073, 12196908074, 12196908075, 12196908076, 5550803199, 5550803198, 12196908077, 12196908071], "tags": {"access": "private", "amenity": "parking", "parking": "surface", "surface": "asphalt"}}, {"type": "relation", "id": 8207560, "members": [{"type": "way", "ref": 579642195, "role": "outer"}, {"type": "way", "ref": 579642196, "role": "inner"}, {"type": "way", "ref": 579642197, "role": "inner"}, {"type": "way", "ref": 579642198, "role": "inner"}], "tags": {"addr:city": "Hagenberg im M\u00fchlkreis", "addr:country": "AT", "addr:housenumber": "99", "addr:place": "Veichter", "addr:postcode": "4232", "amenity": "school", "at_bev:addr_date": "2022-10-01", "building": "school", "contact:email": "lwbfs-hagenberg.post@ooe.gv.at", "contact:fax": "+43 732 7720-233499", "contact:phone": "+43 732 7720-33400", "contact:website": "http://www.abz-hagenberg.at/", "name": "Agrarbildungszentrum Hagenberg", "short_name": "ABZ Hagenberg", "type": "multipolygon"}}]}